[
  {
    "OBJECT_NAME": "STARLINK-3309",
    "OBJECT_ID": "21125C",
    "EPOCH": "2025-11-11T00:14:14.738784",
    "MEAN_MOTION": 16.0097692,
    "ECCENTRICITY": 0.0002571,
    "INCLINATION": 53.2144,
    "RA_OF_ASC_NODE": 58.5346,
    "ARG_OF_PERICENTER": 96.7232,
    "MEAN_ANOMALY": 263.4093,
    "EPHEMERIS_TYPE": 0,
    "CLASSIFICATION_TYPE": "U",
    "NORAD_CAT_ID": 50158,
    "ELEMENT_SET_NO": 999,
    "REV_AT_EPOCH": 21878,
    "BSTAR": 0.0030364000000000003,
    "MEAN_MOTION_DOT": 0.01645731,
    "MEAN_MOTION_DDOT": 0.0016367999999999999,
    "TLE_LINE1": "1 50158U 21125C   25315.00989281  .01645731  16368-2  30364-2 0  9994",
    "TLE_LINE2": "2 50158  53.2144  58.5346 0002571  96.7232 263.4093 16.00976920218788",
    "COMMENT": "Grouped by shell and plane from TLE"
  }
]